BEIDOU-2 IGSO-1 (C06)   
1 36828U 10036A   24333.33030031 -.00000011  00000+0  00000+0 0  9996
2 36828  54.2576 168.0776 0042692 205.6375 279.8716  1.00283674 52428
BEIDOU-2 G4 (C04)       
1 37210U 10057A   24333.83271282 -.00000085  00000+0  00000+0 0  9996
2 37210   2.2449  70.1326 0009379 180.9560 276.9206  1.00272881 51627
BEIDOU-2 IGSO-2 (C07)   
1 37256U 10068A   24333.79702337 -.00000210  00000+0  00000+0 0  9993
2 37256  48.5788 278.8106 0037724 218.6433 322.3894  1.00250433 51125
BEIDOU-2 IGSO-3 (C08)   
1 37384U 11013A   24333.62966281 -.00000197  00000+0  00000+0 0  9992
2 37384  61.5938  45.5324 0031730 181.6099 174.9289  1.00267879 49980
BEIDOU-2 IGSO-4 (C09)   
1 37763U 11038A   24333.01854991  .00000072  00000+0  00000+0 0  9998
2 37763  54.5630 170.7296 0129741 228.4931 131.2387  1.00273963 48970
BEIDOU-2 IGSO-5 (C10)   
1 37948U 11073A   24333.81959385 -.00000188  00000+0  00000+0 0  9992
2 37948  48.7140 278.5066 0100740 222.2488 315.9214  1.00255862 47466
BEIDOU-2 G5 (C05)       
1 38091U 12008A   24333.88414610  .00000084  00000+0  00000+0 0  9999
2 38091   2.1654  70.9358 0011276 224.1547 150.2036  1.00269876 46708
BEIDOU-2 M3 (C11)       
1 38250U 12018A   24333.24007784 -.00000072  00000+0  00000+0 0  9995
2 38250  56.2230 323.8725 0025440 267.4327  92.2845  1.86233718 85400
BEIDOU-2 M4 (C12)       
1 38251U 12018B   24333.17058899 -.00000073  00000+0  00000+0 0  9992
2 38251  56.1283 323.1339 0016350 269.9002  89.9202  1.86232161 85400
BEIDOU-2 M6 (C14)       
1 38775U 12050B   24332.88024750 -.00000040  00000+0  00000+0 0  9999
2 38775  56.0495  81.6990 0010738 340.6101  19.3297  1.86231022 82767
BEIDOU-2 G6 (C02)       
1 38953U 12059A   24333.88918517 -.00000149  00000+0  00000+0 0  9990
2 38953   2.9800  79.1521 0007335 290.9906 102.2890  1.00273236 44247
BEIDOU-3S IGSO-1S (C31) 
1 40549U 15019A   24333.89135719 -.00000189  00000+0  00000+0 0  9993
2 40549  50.2690 302.2388 0034991 198.7944 344.6834  1.00268204 35407
BEIDOU-3S M2S (C58)     
1 40748U 15037A   24333.37120883 -.00000074  00000+0  00000+0 0  9996
2 40748  55.3553 321.4448 0013054 260.8844  98.9728  1.86229225 63584
BEIDOU-3S M1S (C57)     
1 40749U 15037B   24333.64449453 -.00000073  00000+0  00000+0 0  9993
2 40749  55.3578 321.4220 0004333 322.1175  37.8565  1.86227672 63595
BEIDOU-3S IGSO-2S (C56) 
1 40938U 15053A   24333.78382663 -.00000156  00000+0  00000+0 0  9997
2 40938  50.1038 265.4804 0051595 189.4098 351.9053  1.00268677 33689
BEIDOU-2 IGSO-6 (C13)   
1 41434U 16021A   24333.67276626 -.00000176  00000+0  00000+0 0  9996
2 41434  59.4216  43.6980 0055311 225.4554 137.7071  1.00283311 31815
BEIDOU-2 G7 (C03)       
1 41586U 16037A   24333.82298220 -.00000327  00000+0  00000+0 0  9990
2 41586   1.7737  67.1966 0007424 345.7146  62.0763  1.00276905  1222
BEIDOU-3 M1 (C19)       
1 43001U 17069A   24333.72000529 -.00000039  00000+0  00000+0 0  9992
2 43001  56.1999  81.7892 0008375 296.9683  62.9266  1.86231365 48075
BEIDOU-3 M2 (C20)       
1 43002U 17069B   24333.65760413 -.00000039  00000+0  00000+0 0  9990
2 43002  56.1989  81.8270 0005799 326.9200  33.0240  1.86230973 48066
BEIDOU-3 M7 (C27)       
1 43107U 18003A   24332.33133315 -.00000077  00000+0  00000+0 0  9996
2 43107  54.8146 321.9995 0002375  60.4449 299.5868  1.86232542 46793
BEIDOU-3 M8 (C28)       
1 43108U 18003B   24333.34702609 -.00000075  00000+0  00000+0 0  9995
2 43108  54.8068 321.9492 0005178 267.2867  92.6597  1.86231009 46826
BEIDOU-3 M4 (C22)       
1 43207U 18018A   24328.95556500 -.00000021  00000+0  00000+0 0  9990
2 43207  56.1550  82.0304 0003749  14.5229 345.4742  1.86231305 46124
BEIDOU-3 M3 (C21)       
1 43208U 18018B   24333.85473887 -.00000038  00000+0  00000+0 0  9990
2 43208  56.1581  81.8724 0005843 310.3353  49.5940  1.86231408 46210
BEIDOU-3 M9 (C29)       
1 43245U 18029A   24333.53757521 -.00000075  00000+0  00000+0 0  9999
2 43245  54.6921 319.6497 0002199 271.1030  88.8740  1.86232836 45363
BEIDOU-3 M10 (C30)      
1 43246U 18029B   24332.39312906 -.00000077  00000+0  00000+0 0  9999
2 43246  54.6902 319.7168 0003881 345.5189  14.4746  1.86232921 45321
BEIDOU-2 IGSO-7 (C16)   
1 43539U 18057A   24333.46924421 -.00000015  00000+0  00000+0 0  9997
2 43539  55.1511 167.9555 0078032 232.0946 309.2447  1.00261970 23457
BEIDOU-3 M5 (C23)       
1 43581U 18062A   24333.15575662  .00000081  00000+0  00000+0 0  9997
2 43581  54.1133 201.5538 0002241 335.9132  24.1765  1.86228947 43097
BEIDOU-3 M6 (C24)       
1 43582U 18062B   24333.02072441  .00000080  00000+0  00000+0 0  9990
2 43582  54.1129 201.5478 0007176  37.7731 322.3768  1.86230010 43090
BEIDOU-3 M12 (C26)      
1 43602U 18067A   24332.95460867  .00000082  00000+0  00000+0 0  9994
2 43602  54.2050 200.2461 0008561  33.7794 326.3748  1.86227859 42570
BEIDOU-3 M11 (C25)      
1 43603U 18067B   24333.08809953  .00000083  00000+0  00000+0 0  9994
2 43603  54.2023 200.2064 0005183  29.1933 330.9360  1.86227344 42605
BEIDOU-3 M13 (C32)      
1 43622U 18072A   24333.58577392 -.00000040  00000+0  00000+0 0  9999
2 43622  56.1302  81.4032 0005198 290.5200  69.4051  1.86231113 42125
BEIDOU-3 M14 (C33)      
1 43623U 18072B   24332.91428828 -.00000040  00000+0  00000+0 0  9995
2 43623  56.1316  81.4189 0002613 329.2370  30.7286  1.86231103 42109
BEIDOU-3 M16 (C35)      
1 43647U 18078A   24332.53902297 -.00000077  00000+0  00000+0 0  9992
2 43647  54.5892 319.7693 0006809   7.5484 352.4663  1.86232375 41605
BEIDOU-3 M15 (C34)      
1 43648U 18078B   24332.66815981 -.00000077  00000+0  00000+0 0  9990
2 43648  54.5848 319.7670 0003565   3.7402 356.2667  1.86232283 41622
BEIDOU-3 G1 (C59)       
1 43683U 18085A   24333.82880321 -.00000250  00000+0  00000+0 0  9999
2 43683   2.5986 103.7607 0001392  48.5195 354.3241  1.00268694 22391
BEIDOU-3 M17 (C36)      
1 43706U 18093A   24332.28398389  .00000071  00000+0  00000+0 0  9991
2 43706  54.1966 201.5339 0006860 299.1251  60.9021  1.86228590 40985
BEIDOU-3 M18 (C37)      
1 43707U 18093B   24333.75885470  .00000087  00000+0  00000+0 0  9994
2 43707  54.1972 201.4755 0006524 338.9681  21.1081  1.86230124 41005
BEIDOU-3 IGSO-1 (C38)   
1 44204U 19023A   24333.60969028 -.00000227  00000+0  00000+0 0  9994
2 44204  57.8845  43.5105 0025238 212.2760 147.9059  1.00252862  1542
BEIDOU-2 G8 (C01)       
1 44231U 19027A   24332.65993824 -.00000225  00000+0  00000+0 0  9991
2 44231   1.8833  74.7117 0004821 201.4855 172.8660  1.00267086 20402
BEIDOU-3 IGSO-2 (C39)   
1 44337U 19035A   24322.83050358 -.00000064  00000+0  00000+0 0  9993
2 44337  55.1861 163.9216 0034767 201.0257 107.1426  1.00249229 19887
BEIDOU-3 M24 (C46)      
1 44542U 19061A   24332.75498574  .00000077  00000+0  00000+0 0  9991
2 44542  54.4244 201.8365 0009059  14.0130 346.1104  1.86229462 35244
BEIDOU-3 M23 (C45)      
1 44543U 19061B   24331.52427483  .00000059  00000+0  00000+0 0  9997
2 44543  54.4227 201.8468 0005753  10.0598 157.5355  1.86229774 35227
BEIDOU-3 IGSO-3 (C40)   
1 44709U 19073A   24333.28529569 -.00000210  00000+0  00000+0 0  9997
2 44709  55.7741 286.9842 0040203 190.4644 169.3891  1.00252124 18789
BEIDOU-3 M22 (C44)      
1 44793U 19078A   24333.13616791 -.00000076  00000+0  00000+0 0  9993
2 44793  54.4361 319.6605 0005505  11.1205 348.8947  1.86232146 34101
BEIDOU-3 M21 (C43)      
1 44794U 19078B   24333.80247671 -.00000074  00000+0  00000+0 0  9993
2 44794  54.4091 319.6098 0003728 355.3441   4.6540  1.86232657 34123
BEIDOU-3 M19 (C41)      
1 44864U 19090A   24333.45789618 -.00000040  00000+0  00000+0 0  9991
2 44864  56.0644  81.5698 0016925 278.5842  42.4386  1.86231635 33692
BEIDOU-3 M20 (C42)      
1 44865U 19090B   24333.36788497 -.00000040  00000+0  00000+0 0  9996
2 44865  56.0660  81.6065 0014214 291.7301  58.6386  1.86231606 33671
BEIDOU-3 G2 (C60)       
1 45344U 20017A   24333.73799326 -.00000115  00000+0  00000+0 0  9997
2 45344   2.5441  35.3070 0004292 219.7561 158.7610  1.00271057 17597
BEIDOU-3 G3 (C61)       
1 45807U 20040A   24333.82298220 -.00000327  00000+0  00000+0 0  9999
2 45807   1.1022  56.6416 0003494 302.3665 116.0744  1.00272480 16403
BEIDOU-3 G4 (C62)       
1 56564U 23066A   24333.83279971 -.00000083  00000+0  00000+0 0  9994
2 56564   1.7154 289.0628 0004358 257.2158 341.8153  1.00271731  5722
BEIDOU-3 M28 (C50)      
1 58654U 23207A   24333.34852411 -.00000041  00000+0  00000+0 0  9999
2 58654  55.2497  81.4750 0002009 242.8293 117.1308  1.86232072  6309
BEIDOU-3 M26 (C48)      
1 58655U 23207B   24333.68480602 -.00000040  00000+0  00000+0 0  9995
2 58655  55.2521  81.4492 0003440 234.4355 125.5130  1.86231546  6296
